{
  "type": "FeatureCollection",
  "features": [
    {
      "type": "Feature",
      "properties": {
        "norad_id": 63772,
        "name": "BIOMASS",
        "group": "resource",
        "lat": 30.9917728199373,
        "lon": 169.702296167997,
        "alt_km": 666.7651683224312,
        "timestamp": "2025-12-15T14:57:57.498052+00:00",
        "meta_object_name": "BIOMASS",
        "meta_object_id": "2025-090A",
        "meta_epoch": "2025-12-14T22:27:35.456256",
        "meta_mean_motion": 14.67530969,
        "meta_eccentricity": 0.00011973,
        "meta_inclination": 98.07,
        "meta_ra_of_asc_node": 173.9137,
        "meta_arg_of_pericenter": 86.382,
        "meta_mean_anomaly": 273.7522,
        "meta_ephemeris_type": 0,
        "meta_classification_type": "U",
        "meta_norad_cat_id": 63772,
        "meta_element_set_no": 999,
        "meta_rev_at_epoch": 3366,
        "meta_bstar": 0.00022736511,
        "meta_mean_motion_dot": 1.241e-05,
        "meta_mean_motion_ddot": 0,
        "tle_line1": "1 63772U 25090A   25348.93582704  .00001241  00000+0  22737-3 0  9992",
        "tle_line2": "2 63772  98.0700 173.9137 0001197  86.3820 273.7522 14.67530969 33663"
      },
      "geometry": {
        "type": "Point",
        "coordinates": [
          169.702296167997,
          30.9917728199373
        ]
      }
    },
    {
      "type": "Feature",
      "properties": {
        "norad_id": 64694,
        "name": "GOSAT-GW (IBUKI GW)",
        "group": "resource",
        "lat": -60.25443656188499,
        "lon": 90.75831751891278,
        "alt_km": 676.9724152294648,
        "timestamp": "2025-12-15T14:57:57.498061+00:00",
        "meta_object_name": "GOSAT-GW (IBUKI GW)",
        "meta_object_id": "2025-141A",
        "meta_epoch": "2025-12-14T23:08:35.284992",
        "meta_mean_motion": 14.67561818,
        "meta_eccentricity": 0.00014711,
        "meta_inclination": 98.0427,
        "meta_ra_of_asc_node": 284.4368,
        "meta_arg_of_pericenter": 84.3351,
        "meta_mean_anomaly": 275.8022,
        "meta_ephemeris_type": 0,
        "meta_classification_type": "U",
        "meta_norad_cat_id": 64694,
        "meta_element_set_no": 999,
        "meta_rev_at_epoch": 2482,
        "meta_bstar": 0.0001914097,
        "meta_mean_motion_dot": 1.038e-05,
        "meta_mean_motion_ddot": 0,
        "tle_line1": "1 64694U 25141A   25348.96429728  .00001038  00000+0  19141-3 0  9991",
        "tle_line2": "2 64694  98.0427 284.4368 0001471  84.3351 275.8022 14.67561818 24822"
      },
      "geometry": {
        "type": "Point",
        "coordinates": [
          90.75831751891278,
          -60.25443656188499
        ]
      }
    },
    {
      "type": "Feature",
      "properties": {
        "norad_id": 64876,
        "name": "IONOSFERA-M 3",
        "group": "resource",
        "lat": 53.39162518993102,
        "lon": 143.13153416224222,
        "alt_km": 814.9161257843825,
        "timestamp": "2025-12-15T14:57:57.498070+00:00",
        "meta_object_name": "IONOSFERA-M 3",
        "meta_object_id": "2025-155A",
        "meta_epoch": "2025-12-14T23:10:21.295200",
        "meta_mean_motion": 14.21441573,
        "meta_eccentricity": 0.00021832,
        "meta_inclination": 98.5785,
        "meta_ra_of_asc_node": 310.7686,
        "meta_arg_of_pericenter": 56.5789,
        "meta_mean_anomaly": 303.5598,
        "meta_ephemeris_type": 0,
        "meta_classification_type": "U",
        "meta_norad_cat_id": 64876,
        "meta_element_set_no": 999,
        "meta_rev_at_epoch": 2023,
        "meta_bstar": 6.0586253e-05,
        "meta_mean_motion_dot": 9e-07,
        "meta_mean_motion_ddot": 0,
        "tle_line1": "1 64876U 25155A   25348.96552425  .00000090  00000+0  60586-4 0  9996",
        "tle_line2": "2 64876  98.5785 310.7686 0002183  56.5789 303.5598 14.21441573 20232"
      },
      "geometry": {
        "type": "Point",
        "coordinates": [
          143.13153416224222,
          53.39162518993102
        ]
      }
    },
    {
      "type": "Feature",
      "properties": {
        "norad_id": 64877,
        "name": "IONOSFERA-M 4",
        "group": "resource",
        "lat": -52.91782867864887,
        "lon": -37.15219438967574,
        "alt_km": 827.8620206860223,
        "timestamp": "2025-12-15T14:57:57.498080+00:00",
        "meta_object_name": "IONOSFERA-M 4",
        "meta_object_id": "2025-155B",
        "meta_epoch": "2025-12-14T22:19:29.081280",
        "meta_mean_motion": 14.2144268,
        "meta_eccentricity": 0.00015605,
        "meta_inclination": 98.5783,
        "meta_ra_of_asc_node": 310.6539,
        "meta_arg_of_pericenter": 61.2156,
        "meta_mean_anomaly": 298.9178,
        "meta_ephemeris_type": 0,
        "meta_classification_type": "U",
        "meta_norad_cat_id": 64877,
        "meta_element_set_no": 999,
        "meta_rev_at_epoch": 2022,
        "meta_bstar": 6.0334315e-05,
        "meta_mean_motion_dot": 8.9e-07,
        "meta_mean_motion_ddot": 0,
        "tle_line1": "1 64877U 25155B   25348.93019770  .00000089  00000+0  60334-4 0  9994",
        "tle_line2": "2 64877  98.5783 310.6539 0001560  61.2156 298.9178 14.21442680 20226"
      },
      "geometry": {
        "type": "Point",
        "coordinates": [
          -37.15219438967574,
          -52.91782867864887
        ]
      }
    },
    {
      "type": "Feature",
      "properties": {
        "norad_id": 64899,
        "name": "MICROCARB",
        "group": "resource",
        "lat": -80.90998684361054,
        "lon": -176.63058395284355,
        "alt_km": 669.6110470627827,
        "timestamp": "2025-12-15T14:57:57.498089+00:00",
        "meta_object_name": "MICROCARB",
        "meta_object_id": "2025-156A",
        "meta_epoch": "2025-12-14T18:11:15.673056",
        "meta_mean_motion": 14.72060628,
        "meta_eccentricity": 0.00172655,
        "meta_inclination": 98.0024,
        "meta_ra_of_asc_node": 64.0709,
        "meta_arg_of_pericenter": 138.5956,
        "meta_mean_anomaly": 221.6563,
        "meta_ephemeris_type": 0,
        "meta_classification_type": "U",
        "meta_norad_cat_id": 64899,
        "meta_element_set_no": 999,
        "meta_rev_at_epoch": 2083,
        "meta_bstar": 0.00014408008,
        "meta_mean_motion_dot": 8.58e-06,
        "meta_mean_motion_ddot": 0,
        "tle_line1": "1 64899U 25156A   25348.75782029  .00000858  00000+0  14408-3 0  9997",
        "tle_line2": "2 64899  98.0024  64.0709 0017265 138.5956 221.6563 14.72060628 20839"
      },
      "geometry": {
        "type": "Point",
        "coordinates": [
          -176.63058395284355,
          -80.90998684361054
        ]
      }
    },
    {
      "type": "Feature",
      "properties": {
        "norad_id": 64900,
        "name": "CO3D 3",
        "group": "resource",
        "lat": 81.56298233519297,
        "lon": 4.265529242057463,
        "alt_km": 496.8054873996416,
        "timestamp": "2025-12-15T14:57:57.498099+00:00",
        "meta_object_name": "CO3D 3",
        "meta_object_id": "2025-156B",
        "meta_epoch": "2025-12-13T16:46:35.865408",
        "meta_mean_motion": 15.2020033,
        "meta_eccentricity": 0.00013843,
        "meta_inclination": 97.4344,
        "meta_ra_of_asc_node": 64.0523,
        "meta_arg_of_pericenter": 93.9049,
        "meta_mean_anomaly": 266.2345,
        "meta_ephemeris_type": 0,
        "meta_classification_type": "U",
        "meta_norad_cat_id": 64900,
        "meta_element_set_no": 999,
        "meta_rev_at_epoch": 2135,
        "meta_bstar": 0.00015817929,
        "meta_mean_motion_dot": 3.358e-05,
        "meta_mean_motion_ddot": 0,
        "tle_line1": "1 64900U 25156B   25347.69902622  .00003358  00000+0  15818-3 0  9999",
        "tle_line2": "2 64900  97.4344  64.0523 0001384  93.9049 266.2345 15.20200330 21357"
      },
      "geometry": {
        "type": "Point",
        "coordinates": [
          4.265529242057463,
          81.56298233519297
        ]
      }
    },
    {
      "type": "Feature",
      "properties": {
        "norad_id": 64901,
        "name": "CO3D 4",
        "group": "resource",
        "lat": 81.02940538918904,
        "lon": 10.140553902701946,
        "alt_km": 498.02150479313605,
        "timestamp": "2025-12-15T14:57:57.498108+00:00",
        "meta_object_name": "CO3D 4",
        "meta_object_id": "2025-156C",
        "meta_epoch": "2025-12-14T22:47:45.154752",
        "meta_mean_motion": 15.20178368,
        "meta_eccentricity": 8.293e-05,
        "meta_inclination": 97.4342,
        "meta_ra_of_asc_node": 65.2854,
        "meta_arg_of_pericenter": 193.9253,
        "meta_mean_anomaly": 166.1959,
        "meta_ephemeris_type": 0,
        "meta_classification_type": "U",
        "meta_norad_cat_id": 64901,
        "meta_element_set_no": 999,
        "meta_rev_at_epoch": 2154,
        "meta_bstar": 0.00030591969,
        "meta_mean_motion_dot": 6.556e-05,
        "meta_mean_motion_ddot": 0,
        "tle_line1": "1 64901U 25156C   25348.94982818  .00006556  00000+0  30592-3 0  9993",
        "tle_line2": "2 64901  97.4342  65.2854 0000829 193.9253 166.1959 15.20178368 21542"
      },
      "geometry": {
        "type": "Point",
        "coordinates": [
          10.140553902701946,
          81.02940538918904
        ]
      }
    }
  ]
}